GSAT0101 (PRN E11)      
1 37846U 11060A   23158.72262245 -.00000079  00000+0  00000+0 0  9990
2 37846  57.0933  11.6952 0004125  45.5644 314.5168  1.70475885 72272
GSAT0102 (PRN E12)      
1 37847U 11060B   23154.24700733 -.00000068  00000+0  00000+0 0  9991
2 37847  57.0931  11.8166 0003796  10.3947 169.3800  1.70475359 72207
GSAT0103 (PRN E19)      
1 38857U 12055A   23159.34798444  .00000054  00000+0  00000+0 0  9994
2 38857  55.2546 131.9118 0005617 273.2623  86.6337  1.70473541 66173
GSAT0104 (PRN E20)      
1 38858U 12055B   23158.73098552  .00000053  00000+0  00000+0 0  9999
2 38858  55.2544 131.9303 0003056 275.9562  83.9674  1.70473782 66164
GSAT0201 (PRN E18)      
1 40128U 14050A   23158.40874980 -.00000072  00000+0  00000+0 0  9992
2 40128  50.0160 318.1207 1612101 136.9671 236.8583  1.85518865 57808
GSAT0202 (PRN E14)      
1 40129U 14050B   23157.05146807 -.00000070  00000+0  00000+0 0  9991
2 40129  50.0374 317.2445 1609766 137.7267 235.8974  1.85519532 59945
GSAT0203 (PRN E26)      
1 40544U 15017A   23157.91558877 -.00000076  00000+0  00000+0 0  9991
2 40544  56.8887  11.7022 0001020 279.2118  80.8265  1.70475676 50341
GSAT0204 (PRN E22)      
1 40545U 15017B   23156.99584707 -.00000073  00000+0  00000+0 0  9997
2 40545  56.8946  11.7411 0000716 204.9820 155.0676  1.70475420 13376
GSAT0205 (PRN E24)      
1 40889U 15045A   23159.11012435 -.00000002  00000+0  00000+0 0  9992
2 40889  55.4082 252.1363 0003504  23.3169 336.7528  1.70473848 48179
GSAT0206 (PRN E30)      
1 40890U 15045B   23158.15765626  .00000005  00000+0  00000+0 0  9996
2 40890  55.4073 252.1583 0001712  12.0810 347.9785  1.70473879 48186
GSAT0209 (PRN E09)      
1 41174U 15079A   23154.22317601  .00000071  00000+0  00000+0 0  9992
2 41174  55.2701 131.7587 0005419 306.3746  53.5439  1.70474208 45853
GSAT0208 (PRN E08)      
1 41175U 15079B   23155.61589904  .00000062  00000+0  00000+0 0  9994
2 41175  55.2693 131.7186 0004772 305.2585  54.6573  1.70474168 46294
GSAT0211 (PRN E02)      
1 41549U 16030A   23157.49674825  .00000008  00000+0  00000+0 0  9992
2 41549  55.5553 252.1473 0002723 320.3805  39.6546  1.70473916 43785
GSAT0210 (PRN E01)      
1 41550U 16030B   23156.02852719  .00000011  00000+0  00000+0 0  9996
2 41550  55.5555 252.1888 0002284 273.4191  86.6044  1.70474068 43770
GSAT0207 (PRN E07)      
1 41859U 16069A   23156.27681318  .00000058  00000+0  00000+0 0  9993
2 41859  54.9346 131.7967 0005581 295.2029  64.6974  1.70474343 40511
GSAT0212 (PRN E03)      
1 41860U 16069B   23156.13159459  .00000059  00000+0  00000+0 0  9997
2 41860  54.9306 131.7977 0004155 313.4400  46.4840  1.70474320 40764
GSAT0213 (PRN E04)      
1 41861U 16069C   23158.25671241  .00000052  00000+0  00000+0 0  9994
2 41861  54.9340 131.7446 0005582 279.3873  80.5068  1.70472938 40666
GSAT0214 (PRN E05)      
1 41862U 16069D   23157.23070024  .00000054  00000+0  00000+0 0  9996
2 41862  54.9334 131.7671 0004637 282.0982  77.8063  1.70472785 40778
GSAT0215 (PRN E21)      
1 43055U 17079A   23158.89364378  .00000000  00000+0  00000+0 0  9996
2 43055  55.5302 251.9360 0002013 259.2866 100.7455  1.70474639 34144
GSAT0216 (PRN E25)      
1 43056U 17079B   23155.07953772  .00000009  00000+0  00000+0 0  9995
2 43056  55.5334 252.0408 0004281 273.6147  86.3804  1.70474884 34099
GSAT0217 (PRN E27)      
1 43057U 17079C   23159.40595190 -.00000004  00000+0  00000+0 0  9999
2 43057  55.5284 251.9209 0002963 289.0107  71.0105  1.70474724 34158
GSAT0218 (PRN E31)      
1 43058U 17079D   23159.03941219 -.00000001  00000+0  00000+0 0  9993
2 43058  55.5291 251.9285 0004011 267.9731  92.0355  1.70474681 34179
GSAT0221 (PRN E15)      
1 43564U 18060A   23158.93878380 -.00000079  00000+0  00000+0 0  9997
2 43564  57.2696  11.5800 0002109 314.7744  45.2552  1.70475495 30329
GSAT0222 (PRN E33)      
1 43565U 18060B   23157.39894840 -.00000074  00000+0  00000+0 0  9991
2 43565  57.2715  11.6226 0002207 334.3740  25.6671  1.70475478 30345
GSAT0219 (PRN E36)      
1 43566U 18060C   23155.85970274 -.00000069  00000+0  00000+0 0  9991
2 43566  57.2716  11.6663 0002066 342.2480  17.8016  1.70475537 30290
GSAT0220 (PRN E13)      
1 43567U 18060D   23156.08006801 -.00000070  00000+0  00000+0 0  9996
2 43567  57.2715  11.6609 0001942 341.1803  18.8688  1.70475324 30288
GSAT0223 (PRN E34)      
1 49809U 21116A   23158.59839069 -.00000078  00000+0  00000+0 0  9993
2 49809  57.2637  11.4891 0001973 124.9581  70.8640  1.70475302  9324
GSAT0224 (PRN E10)      
1 49810U 21116B   23157.21785559 -.00000073  00000+0  00000+0 0  9992
2 49810  57.2641  11.5246 0001882  97.8470  83.1924  1.70475417  9330
